SONATE-2
1 59112U 24043Q   26142.37831138  .00029213  00000+0  41018-3 0  9993
2 59112  97.5516 291.2367 0005757 291.7013  68.3628 15.56668915123876
GRBBeta
1 60237U 24128C   26142.46733610  .00003442  00000+0  24209-3 0  9992
2 60237  61.9902 306.4896 0044215 129.4130 231.0890 15.06399137102391
Curium One
1 60242U 24128H   26142.44961225  .00006979  00000+0  40737-3 0  9993
2 60242  61.9791 296.9040 0043774 125.7184 234.7996 15.12047698102569
ROBUSTA-3A
1 60243U 24128J   26142.13555910  .00006664  00000+0  39814-3 0  9995
2 60243  61.9870 300.3431 0045110 122.9540 237.5905 15.11213628102482
CatSat
1 60246U 24125J   26142.36946007  .00040920  00000+0  59172-3 0  9993
2 60246  97.2114 354.5917 0021055 276.1132  83.7724 15.55553190103377
ARTIC WX
1 60543U 24149CD  26142.42964696  .00000550  00000+0  62930-4 0  9992
2 60543  97.6806 213.6301 0002445 156.3894 203.7436 14.89806235 95468
ARCTICSAT 1
1 61762U 24199AD  26142.61375891  .00284349  00000+0  97304-3 0  9997
2 61762  97.2886  24.7905 0001777 136.4134 223.7280 15.89025900134039
HYPERVIEW-1G (RS66S)
1 61772U 24199AP  26142.73632251  .00082423  00000+0  69794-3 0  9998
2 61772  97.2923  21.2895 0005433  34.6544 325.5071 15.69436379130678
AO-123
1 61781U 24199AY  26142.74921832  .00006135  00000+0  18094-3 0  9998
2 61781  97.3032  11.6521 0015208  46.0364 314.2131 15.35253916130025
SAMSAT-IONOSPHERE
1 61784U 24199BB  26142.72848078  .00034346  00000+0  50759-3 0  9998
2 61784  97.2985  18.0569 0009233  30.3616 329.8172 15.55209201133608
LASARsat
1 62391U 24247Q   26142.76872649  .00025341  00000+0  53829-3 0  9998
2 62391  44.9758  44.8644 0006206 188.2639 171.8149 15.44602945 79389
CROCUBE
1 62394U 24247T   26142.14966179  .00027987  00000+0  56184-3 0  9990
2 62394  44.9726  46.0653 0005761 187.7135 172.3667 15.46210974 79314
JINJUSat 1B
1 63210U 25052A   26142.16798059  .00011988  00000+0  38316-3 0  9996
2 63210  97.4027  38.9016 0004076 145.2534 214.8975 15.32587882 66110
NUSHSAT 1
1 63211U 25052B   26142.44721727  .00015175  00000+0  45116-3 0  9994
2 63211  97.4003  39.6624 0003853 143.6575 216.4931 15.34837365 66191
TEVEL2-4
1 63213U 25052D   26141.70008453  .00012425  00000+0  38506-3 0  9998
2 63213  97.3928  38.0639 0002747 152.6877 207.4511 15.33570226 66051
TEVEL2-5
1 63214U 25052E   26142.69657035  .00013982  00000+0  43469-3 0  9997
2 63214  97.3926  39.0156 0002788 150.6095 209.5305 15.33440918 66205
TEVEL2-6
1 63215U 25052F   26141.59890998  .00012324  00000+0  38436-3 0  9990
2 63215  97.3928  37.9026 0002775 153.8216 206.3167 15.33369876 66032
TEVEL2-1
1 63217U 25052H   26142.66349000  .00014523  00000+0  45902-3 0  9993
2 63217  97.3902  38.6210 0002413 161.7366 198.3964 15.32904995 66189
TEVEL2-3
1 63218U 25052J   26142.65900247  .00014776  00000+0  46626-3 0  9993
2 63218  97.3903  38.6353 0002388 164.1454 195.9863 15.32954657 66186
TEVEL2-2
1 63219U 25052K   26142.66392990  .00014277  00000+0  45124-3 0  9993
2 63219  97.3904  38.6232 0002343 163.4339 196.6980 15.32910739 66180
TEVEL2-9
1 63237U 25052AD  26142.47830502  .00012880  00000+0  43209-3 0  9998
2 63237  97.3963  37.8672 0004649 216.2250 143.8677 15.31009517 66093
TEVEL2-7
1 63238U 25052AE  26142.44909730  .00011813  00000+0  39993-3 0  9996
2 63238  97.3967  37.7646 0004730 216.8482 143.2434 15.30734626 66081
TEVEL2-8
1 63239U 25052AF  26140.95351763  .00010564  00000+0  35857-3 0  9995
2 63239  97.3969  36.2522 0004539 224.9979 135.0895 15.30681443 65851
PARUS-T2
1 64560U 25135AJ  26142.58080657  .00003268  00000+0  30132-3 0  9991
2 64560  97.7702 257.4767 0001159  77.9328 282.2023 14.95366895 50083
Geoscan-1
1 64880U 25155E   26142.75050699  .00008460  00000+0  29243-3 0  9990
2 64880  97.4543 111.3438 0005449 266.4116  93.6501 15.30155958 76884
Geoscan-2
1 64890U 25155Q   26142.74871973  .00008488  00000+0  29093-3 0  9999
2 64890  97.4542 111.4844 0004918 246.8629 113.2094 15.30431788 76892
Geoscan-4
1 64892U 25155S   26142.73596694  .00011721  00000+0  37434-3 0  9996
2 64892  97.4541 111.9776 0003705 274.6888  85.3931 15.32623592 76922
Geoscan-3
1 64893U 25155T   26142.70295892  .00014064  00000+0  42386-3 0  9995
2 64893  97.4531 112.3039 0003343 274.1929  85.8932 15.34428935 76942
SPIRONE
1 66657U 25274H   26142.59442582  .00001289  00000+0  12790-3 0  9995
2 66657  97.7480  72.2543 0013742  98.1997 262.0782 14.93422701 26402
K-HERO
1 66660U 25274L   26142.07035800  .00001360  00000+0  13319-3 0  9991
2 66660  97.7488  71.8795 0015569 103.9434 256.3518 14.93844413 26331
SNUGLITE-III DURI
1 66661U 25274M   26142.05893356  .00000942  00000+0  93771-4 0  9994
2 66661  97.7485  71.8880 0016151 104.9172 255.3838 14.93896982 26334
GALAPAGOS
1 67279U 25313AH  26142.44580546  .00005211  00000+0  22764-3 0  9998
2 67279  97.3925 217.4677 0015844  95.3090 264.9955 15.22432413 22034
Lobachevsky
1 67282U 25313AL  26142.65611469  .00004099  00000+0  17834-3 0  9999
2 67282  97.3929 217.7848 0012324  90.7258 269.5391 15.22739595 22070
SAKHACUBE-CHOLBON
1 67290U 25313AU  26142.43266264  .00007630  00000+0  31410-3 0  9993
2 67290  97.3934 217.7989 0010920  89.7975 270.4513 15.24348113 22054
RS95S (QMR-KWT-2)
1 67291U 25313AV  26142.63950000  .00011279  00000+0  44688-3 0  9999
2 67291  97.3933 218.1293 0010498  88.7661 271.4780 15.25524408 22093
KNACKSAT-2
1 67683U 98067XZ  26142.38540699  .00034736  00000+0  46688-3 0  9996
2 67683  51.6304  64.0201 0012106 105.5430 254.6899 15.57477289 16254
Ten-Koh2
1 68261U 25241B   26142.24039741  .00005765  00000+0  25174-3 0  9996
2 68261  51.6596  83.0859 0006573  64.3932 295.7724 15.23524006 10957
JACK-002
1 68417U 26067B   26142.73745444  .00004785  00000+0  23171-3 0  9990
2 68417  97.4555 101.6523 0003104  48.8202 311.3299 15.19028562  8086
DISCO 2
1 68431U 26067R   26142.62084157  .00004711  00000+0  23080-3 0  9999
2 68431  97.4591 101.5281 0004446  87.1619 273.0124 15.18626340  8066
HADES-SA (SpinnyONE)
1 68446U 26067AG  26140.67798287  .00011372  00000+0  56129-3 0  9995
2 68446  97.4403  99.4112 0008038 151.4172 208.7504 15.18027540  7751
PARUS-6U1
1 68456U 26067AS  26142.33775750  .00003729  00000+0  19090-3 0  9994
2 68456  97.4541 101.1078 0006788 138.7739 221.4008 15.17206709  8010
SAL-E
1 68458U 26067AU  26142.60016227  .00005358  00000+0  27174-3 0  9995
2 68458  97.4467 101.3200 0006874 145.2616 214.9068 15.17340160  8058
FSI-SAT 2
1 68792U 26088A   26142.65099117  .00002794  00000+0  19242-3 0  9991
2 68792  97.5036 292.5610 0014420 189.3081 170.7882 15.06586938  4446
OrigamiSat 2
1 68795U 26088D   26142.29057924  .00003011  00000+0  19901-3 0  9999
2 68795  97.5052 292.2779 0016279 164.3409 195.8326 15.08037860  4393
ARICA 2
1 68796U 26088E   26142.15562388  .00003668  00000+0  24060-3 0  9990
2 68796  97.5036 292.1441 0016327 163.1270 197.0504 15.08176331  4375
WASEDA-SAT-ZERO-II
1 68797U 26088F   26142.75129418  .00004988  00000+0  32467-3 0  9996
2 68797  97.5039 292.7288 0016329 160.9194 199.2649 15.08297068  4461
MANGARO-II-Piscus
1 68798U 26088G   26142.67877694  .00003001  00000+0  19530-3 0  9995
2 68798  97.5045 292.6761 0019717 164.5319 195.6517 15.08561586  4459
Delfi-N3xt
1 39428U 13066N   26142.47523791  .00004707  00000-0  41627-3 0  9996
2 39428  97.8346  62.8153 0073108 293.1747  66.1783 14.94766050670783
HYDRA-W
1 63490U 25052BL  26113.93882235  .05662091  24406-5  29537-2 0  9997
2 63490  97.3690  18.2798 0008685 203.5899 156.4993 16.20186780 62336
HADES-ICM (SO-125)
1 63492U 25052BN  26141.26653903  .06532167  24596-5  20834-2 0  9996
2 63492  97.3646  46.2798 0012082 212.8267 147.2275 16.26141053 66568
SilverSat
1 66909U 98067XV  26113.44966717  .07226154  12288-4  11979-2 0  9998
2 66909  51.6027 190.0749 0007952 333.4666  26.5949 16.32457272 22308
IO-86
1 40931U          25360.30710720  .00000000  00000-0  12800-3 0    00
2 40931   6.0006 332.5373 0012733 338.8432   8.1437 14.79075515    01
LILIUM-4
1 71922C 26067AC  26089.50133053 -.00014632  00000 0 -74472-3 0    04
2 71922  97.4497  49.1617 0004341   5.9603 355.7042 15.16896692    16
TRANSIT 5B-5
1 00965U 64083D   26140.22132175  .00000058  00000-0  68520-4 0  9995
2 00965  90.0785 202.8139 0041495   2.6876  57.4259 13.57009955 39826
PARUS-T1
1 98707U 25009N   25063.20000000  .00000000  00000-0  00000-0 0    08
2 98707  97.4430 144.9801 0003811 149.1702 136.3402 15.16239457    06
T.MicroSat-1
1 98515U 25276Y   25347.12519372 +.00009703 +00000+0 +47621-3 0 00218
2 98515  97.4377  58.8963 0002080  99.7173 260.4296 15.18293117002180
ARICA-2
1 98329U 27001A   26113.71443610  .00000000  00000-0  29916-3 0    03
2 98329  97.5133 264.2063 0010953 206.3608 281.8662 15.08387874    01
CORIOLIS
1 27640U 03001A   26142.47738652  .00000073  00000+0  54905-4 0  9996
2 27640  98.7131 149.7546 0012833 288.7607  71.2177 14.19936975210575
